OBJECT_NAME,OBJECT_ID,EPOCH,MEAN_MOTION,ECCENTRICITY,INCLINATION,RA_OF_ASC_NODE,ARG_OF_PERICENTER,MEAN_ANOMALY,EPHEMERIS_TYPE,CLASSIFICATION_TYPE,NORAD_CAT_ID,ELEMENT_SET_NO,REV_AT_EPOCH,BSTAR,MEAN_MOTION_DOT,MEAN_MOTION_DDOT
SL-16 R/B,1996-051B,2026-06-17T19:26:56.463072,14.12446060,.0015519,70.7641,323.3296,335.9552,24.0842,0,U,24298,999,53578,.86422E-4,.11E-5,0
ORBVIEW 2 (SEASTAR),1997-037A,2026-06-17T10:30:57.903552,14.35553350,.00031983,98.8687,335.4641,115.6178,244.5338,0,U,24883,999,52278,.69581936E-4,.154E-5,0
SL-16 R/B,1998-043G,2026-06-17T18:48:49.163040,14.26068670,.0010944,98.8364,122.9482,84.7886,275.4542,0,U,25400,999,45325,.3133E-4,.3E-6,0
SL-16 R/B,1998-045B,2026-06-17T19:13:23.291328,14.16202964,.0009364,71.0117,331.0387,240.8794,119.1393,0,U,25407,999,44127,-.9192E-4,-.23E-5,0
ISS (ZARYA),1998-067A,2026-06-17T20:01:43.055040,15.49287853,.0004753,51.6335,296.8886,198.5228,161.5588,0,U,25544,999,57185,.19787E-3,.10577E-3,0
CZ-4B R/B,1999-025C,2026-06-17T15:24:14.778144,14.18283596,.0038046,98.6483,210.4689,58.4012,53.4255,0,U,25732,999,40233,.33616E-4,.27E-6,0
OKEAN-O,1999-039A,2026-06-17T18:04:25.438080,14.80467841,.0001585,97.9316,227.5445,72.3210,287.8175,0,U,25860,999,44919,.68578E-4,.472E-5,0
SL-16 R/B,1999-039B,2026-06-17T18:35:01.229856,14.81845612,.0013464,97.9837,227.6356,294.7752,65.2059,0,U,25861,999,45168,.51049E-4,.35E-5,0
DELTA 2 R/B,1999-041E,2026-06-17T11:00:19.095840,14.12016533,.05008437,51.7654,262.7127,282.8187,71.7250,0,U,25876,999,37712,.11122115E-3,.455E-5,0
HELIOS 1B,1999-064A,2026-06-17T15:35:03.719040,14.88007501,.0002499,98.1614,73.8025,90.6257,269.5245,0,U,25977,999,70012,.1205E-3,.1047E-4,0
TERRA,1999-068A,2026-06-17T20:23:37.713120,14.61103577,.0001631,97.9456,218.3697,187.1264,288.8317,0,U,25994,999,40970,.71898E-4,.309E-5,0
SL-16 R/B,2000-006B,2026-06-17T15:07:46.418304,14.15834058,.0015549,71.0020,247.6933,22.3684,337.8113,0,U,26070,999,36270,.19235E-4,-.1E-6,0
TITAN 4B R/B,2000-047B,2026-06-17T18:55:51.940704,15.10200614,.0045781,67.9882,118.8799,286.4875,73.1247,0,U,26474,999,40802,.15802E-3,.2511E-4,0
ENVISAT,2002-009A,2026-06-17T19:18:23.666976,14.39064900,.0001347,98.3834,120.1091,88.7106,327.4925,0,U,27386,999,27357,.33448E-4,.6E-6,0
IDEFIX & ARIANE 42P R/B,2002-021B,2026-06-17T19:53:23.245728,14.31082352,.0010598,98.5942,106.3049,251.8310,108.1719,0,U,27422,999,25834,.77669E-4,.161E-5,0
AQUA,2002-022A,2026-06-17T19:22:03.553248,14.62158874,.0001081,98.4277,138.1021,53.5889,7.8988,0,U,27424,999,28336,.12652E-3,.587E-5,0
CZ-4B R/B,2002-024C,2026-06-17T17:53:07.362240,14.14564497,.005121,98.8700,221.5618,98.7014,12.1074,0,U,27432,999,24338,.34968E-4,.24E-6,0
MIDORI II (ADEOS-II),2002-056A,2026-06-17T18:26:02.067936,14.29349830,.0002205,98.7878,128.0328,76.4223,283.7204,0,U,27597,999,22459,.912E-4,.187E-5,0
H-2A R/B,2002-056E,2026-06-17T18:42:41.123232,14.33822214,.0069208,98.3312,125.4325,222.7823,199.3616,0,U,27601,999,22845,.6419E-4,.141E-5,0
CZ-4B R/B,2003-049C,2026-06-17T12:09:03.471552,14.55100318,.0046953,98.6896,167.3655,287.6003,72.0068,0,U,28059,999,20111,.60907701E-4,.214E-5,0
CZ-2C R/B,2004-012C,2026-06-17T17:31:56.064000,15.79076880,.0009441,97.7072,244.4574,281.7623,78.2584,0,U,28222,999,21998,.50237E-3,.89981E-3,0
SL-16 R/B,2004-021B,2026-06-17T19:08:40.619040,14.14608106,.0007251,71.0007,22.4079,254.1668,105.8655,0,U,28353,999,13699,-.9811E-4,-.236E-5,0
CZ-4B R/B,2004-035C,2026-06-17T15:44:04.812000,15.30632117,.0029826,97.3361,201.7238,336.2795,23.7069,0,U,28415,999,19519,.2062E-3,.611E-4,0
CZ-2C R/B,2004-046B,2026-06-17T18:03:31.233312,14.27026587,.0138513,98.1945,77.4980,218.5870,140.5350,0,U,28480,999,12277,.36708E-4,.57E-6,0
ARIANE 5 R/B,2004-049H,2026-06-17T11:12:32.565312,14.85449367,.00844809,98.2720,340.7306,28.5326,332.0474,0,U,28499,999,16060,.61420488E-4,.499E-5,0
CZ-2D R/B,2005-024B,2026-06-17T20:33:51.579936,15.69618732,.0003275,97.3481,188.3185,52.3725,307.7834,0,U,28738,999,15544,.43621E-3,.51641E-3,0
ALOS (DAICHI),2006-002A,2026-06-17T20:08:30.615936,14.70051683,.0001429,98.1323,124.4045,56.9447,303.1896,0,U,28931,999,8819,.15036E-3,.853E-5,0
H-2A R/B,2006-002B,2026-06-17T12:22:57.330048,15.18063600,.0049597,98.2567,324.3741,261.1521,98.4093,0,U,28932,999,10957,.28042E-3,.5813E-4,0
RESURS-DK 1,2006-021A,2026-06-17T18:17:59.682048,15.13220077,.0006884,69.9330,338.0639,291.2664,68.7767,0,U,29228,999,10266,.1048E-3,.1758E-4,0
CZ-4B R/B,2006-046C,2026-06-17T15:33:43.335072,15.17786742,.0030996,97.5449,213.2542,281.0330,78.7418,0,U,29507,999,7520,.15196E-3,.3037E-4,0
CZ-2C R/B,2007-010B,2026-06-17T18:20:45.041280,14.20276284,.0058985,98.4100,277.0870,4.4540,355.7151,0,U,31114,999,99392,.48627E-4,.65E-6,0
